{
"type": "FeatureCollection",
"name": "ku",
"crs": { "type": "name", "properties": { "name": "urn:ogc:def:crs:OGC:1.3:CRS84" } },
"features": [
{ "type": "Feature", "properties": { "ID": "1", "ID_2": "648701", "TYPPPD_KOD": "9100303", "KATUZE_KOD": 648701, "Nazev": "Hrušky" }, "geometry": { "type": "MultiPolygon", "coordinates": [ [ [ [ 16.956291092474746, 48.816800249058801 ], [ 16.956348529715299, 48.81678491586554 ], [ 16.956415532635006, 48.816785425068595 ], [ 16.956473362063996, 48.816785940375382 ], [ 16.956486402986091, 48.816787464193972 ], [ 16.956577311127493, 48.816797924214974 ], [ 16.956661488653317, 48.816807653110757 ], [ 16.956828381835361, 48.816826830020744 ], [ 16.956915931795908, 48.816836879525319 ], [ 16.956943910050384, 48.816840056610431 ], [ 16.956993257348074, 48.816845778432693 ], [ 16.957010469351854, 48.816847767956077 ], [ 16.957013963131953, 48.816848187452386 ], [ 16.957088472208063, 48.816856713066713 ], [ 16.957199694053639, 48.816869464384432 ], [ 16.957297725518291, 48.816880772069126 ], [ 16.957406252398425, 48.816893248670731 ], [ 16.957415257773537, 48.816894315887247 ], [ 16.957496413598644, 48.816904108962802 ], [ 16.957591558625207, 48.816915490443726 ], [ 16.957686568240902, 48.816926862593093 ], [ 16.957782241161244, 48.816938370379603 ], [ 16.957873892524091, 48.816949332153555 ], [ 16.958058535905977, 48.816971437457418 ], [ 16.958157973706324, 48.816983382899657 ], [ 16.958240890732906, 48.816993295726583 ], [ 16.958337918455843, 48.817004895570307 ], [ 16.958412357944852, 48.8170138675899 ], [ 16.958494868708534, 48.817023752477894 ], [ 16.958604923592894, 48.817036965137717 ], [ 16.958700461482088, 48.817048462907223 ], [ 16.95878328066199, 48.817059001513286 ], [ 16.958970788163231, 48.817082928285792 ], [ 16.959012807353723, 48.817088239128843 ], [ 16.959066092710419, 48.817095042670978 ], [ 16.959166894930533, 48.817107894078184 ], [ 16.959257771577064, 48.817119434663731 ], [ 16.959454420453003, 48.817144436968228 ], [ 16.959549318869524, 48.817156523200367 ], [ 16.95965643171165, 48.817170166763212 ], [ 16.959748242765887, 48.817181861166105 ], [ 16.95984704151968, 48.817194394315827 ], [ 16.959933611918572, 48.817205459455252 ], [ 16.960025287647358, 48.817217144386547 ], [ 16.960127038551434, 48.817230059700051 ], [ 16.960212810346931, 48.81724097967686 ], [ 16.960306097668955, 48.817252864833534 ], [ 16.960405559976678, 48.817265533203738 ], [ 16.960505428702483, 48.817278229235818 ], [ 16.960590658840349, 48.817289111932816 ], [ 16.960793740914983, 48.817315003173491 ], [ 16.961000317048985, 48.817341313429857 ], [ 16.961096150403705, 48.817353552577849 ], [ 16.961155882205912, 48.817361156898961 ], [ 16.961308163937709, 48.817381860883387 ], [ 16.961405090513168, 48.817394988089028 ], [ 16.961490358473842, 48.817406505539537 ], [ 16.961582193817744, 48.817418923350438 ], [ 16.961666378208584, 48.817430366685358 ], [ 16.961759675654402, 48.8174430649889 ], [ 16.961842790477945, 48.817454344757991 ], [ 16.961927381358301, 48.817465815644873 ], [ 16.962009954431132, 48.817477058302202 ], [ 16.96223839214284, 48.817508023050046 ], [ 16.962329415119257, 48.817520384779137 ], [ 16.962413328939352, 48.817531809071824 ], [ 16.96250516474419, 48.817544226144229 ], [ 16.962677626434562, 48.817569831787239 ], [ 16.962784134059742, 48.817585600821332 ], [ 16.962961687403265, 48.817611915225243 ], [ 16.96305602261442, 48.817625858589011 ], [ 16.963132430621613, 48.817637131620273 ], [ 16.963309185589221, 48.817663300555509 ], [ 16.963396832127547, 48.817676244614759 ], [ 16.963491695411449, 48.817690314057891 ], [ 16.963593653996458, 48.817705410167761 ], [ 16.963689451594369, 48.817719633621167 ], [ 16.963783245382221, 48.81773353940487 ], [ 16.963843987167152, 48.817742567340936 ], [ 16.963919190411588, 48.817753667185976 ], [ 16.963993594942554, 48.817764622056615 ], [ 16.964073618737203, 48.817776412444005 ], [ 16.964149620831598, 48.817787657062688 ], [ 16.964207438672371, 48.817796123600267 ], [ 16.964285729613223, 48.81780761474743 ], [ 16.964357196226604, 48.817818097633371 ], [ 16.964638499398674, 48.817859446058421 ], [ 16.964847658895636, 48.8178902650372 ], [ 16.965073148607932, 48.817923463754148 ], [ 16.965140065956238, 48.817933274042268 ], [ 16.965189480747767, 48.81793944885343 ], [ 16.965300525115524, 48.81795335522061 ], [ 16.965510128357973, 48.817979592360736 ], [ 16.965713963081139, 48.818005073844411 ], [ 16.965905583226672, 48.818028998223213 ], [ 16.966105924413025, 48.818054059785084 ], [ 16.966286521265555, 48.818076688897769 ], [ 16.966472359203454, 48.81809994653905 ], [ 16.966664470943822, 48.818125982545716 ], [ 16.966838206882532, 48.818149589190945 ], [ 16.966985929746304, 48.818169703056341 ], [ 16.967168251435734, 48.818194437395853 ], [ 16.967529144465214, 48.818243378093754 ], [ 16.967693226066785, 48.818265691908231 ], [ 16.967866164213337, 48.81828915209821 ], [ 16.967955713945326, 48.818301318264112 ], [ 16.968046683817608, 48.818314033275954 ], [ 16.968235205279356, 48.818340273672341 ], [ 16.96838659622923, 48.818361449549478 ], [ 16.968555943106061, 48.818385115729399 ], [ 16.968733740201859, 48.818409900483509 ], [ 16.968910332320906, 48.818434512352958 ], [ 16.969103268930766, 48.818461414042375 ], [ 16.969164367432768, 48.818469920915845 ], [ 16.969214348632779, 48.818476855824322 ], [ 16.969241770039119, 48.818450337819883 ], [ 16.969253846311641, 48.818438775510614 ], [ 16.96935014699579, 48.818398150380304 ], [ 16.969449964389966, 48.818356047268296 ], [ 16.969543345697168, 48.818316579013704 ], [ 16.969649911565, 48.818271590896948 ], [ 16.969737711388888, 48.818234544502175 ], [ 16.970220255459804, 48.818030854485023 ], [ 16.970869440667453, 48.817763035327367 ], [ 16.971068120564247, 48.817690153053846 ], [ 16.972090304012909, 48.817314952073644 ], [ 16.972706055952784, 48.817080465063434 ], [ 16.973067931996752, 48.816942672460669 ], [ 16.973172597089025, 48.816902795560807 ], [ 16.973254700058355, 48.816871506186004 ], [ 16.973348585955588, 48.816835776344355 ], [ 16.973450032841765, 48.8167972167698 ], [ 16.973501564161122, 48.816777585189165 ], [ 16.973558634311615, 48.816755799740321 ], [ 16.973608563661386, 48.816736782176662 ], [ 16.973684692891052, 48.816707797548453 ], [ 16.973744518328012, 48.816685024536049 ], [ 16.973784742746197, 48.816669413703423 ], [ 16.97386796092982, 48.816637115065681 ], [ 16.973980176187723, 48.816593593415192 ], [ 16.974093124458633, 48.816549760001493 ], [ 16.974176342244558, 48.816517461139306 ], [ 16.97438621925118, 48.816435934581719 ], [ 16.974481681777576, 48.816398864860432 ], [ 16.974685734123625, 48.816319562631961 ], [ 16.974799115486711, 48.816275577308794 ], [ 16.975001116671564, 48.816197129267529 ], [ 16.975137871527309, 48.816144611036322 ], [ 16.975155505818478, 48.816137766619541 ], [ 16.975202435607883, 48.816119538491805 ], [ 16.975780132700493, 48.815894467494644 ], [ 16.975833198443258, 48.815873764259983 ], [ 16.976034206271073, 48.815795518139986 ], [ 16.977024784419957, 48.815391634926087 ], [ 16.978353309724273, 48.814823173310565 ], [ 16.979752200108173, 48.814244845460927 ], [ 16.981044801127041, 48.813719294003121 ], [ 16.981057521154302, 48.813714103049392 ], [ 16.981113959327061, 48.81368404420104 ], [ 16.982992302476109, 48.812683045089436 ], [ 16.983734059272038, 48.812287753885578 ], [ 16.985072478888952, 48.811351310672684 ], [ 16.985348295767185, 48.811158354206746 ], [ 16.985451094554481, 48.811086426973482 ], [ 16.986467270809079, 48.810354141819431 ], [ 16.986467882364998, 48.810353731411809 ], [ 16.987085376173447, 48.809908739342539 ], [ 16.987927584748007, 48.809296326042826 ], [ 16.987964312715651, 48.809269714629039 ], [ 16.98843135305092, 48.808930017408969 ], [ 16.988696941325202, 48.808725238604843 ], [ 16.98896173861689, 48.808521128755807 ], [ 16.989004835823611, 48.808487898789338 ], [ 16.98907982753558, 48.808430078793037 ], [ 16.989164621265289, 48.808364698753408 ], [ 16.989522603699996, 48.808180037308816 ], [ 16.989651161077806, 48.808110492559038 ], [ 16.989694226592437, 48.808087114497333 ], [ 16.989722773574488, 48.808071698812803 ], [ 16.989746091977601, 48.808059091594032 ], [ 16.989769858531172, 48.8080462436441 ], [ 16.990075564017459, 48.807880806266262 ], [ 16.991362748390188, 48.807027337759898 ], [ 16.991701954051177, 48.806802338036029 ], [ 16.991766465141826, 48.806757274209403 ], [ 16.993207219745191, 48.805750600667373 ], [ 16.993276334865474, 48.805702323470172 ], [ 16.992200324030545, 48.804280735658978 ], [ 16.99202395171395, 48.804036395345108 ], [ 16.991847716542182, 48.803792063969901 ], [ 16.991736967536006, 48.803638615063008 ], [ 16.991475420458009, 48.803291021797484 ], [ 16.991058328674654, 48.802736754974632 ], [ 16.990917492600083, 48.802430460784635 ], [ 16.990263407240839, 48.800849958505829 ], [ 16.989740158601784, 48.7996058041984 ], [ 16.989601275444461, 48.799275682451452 ], [ 16.989439928119982, 48.798884273151373 ], [ 16.98890307686349, 48.797581055145798 ], [ 16.988261691814625, 48.796023455974527 ], [ 16.98803762250364, 48.795463143791963 ], [ 16.988046820910206, 48.795322555132216 ], [ 16.988045178080139, 48.795263769551205 ], [ 16.988044419031194, 48.795237047994597 ], [ 16.988041971204748, 48.795152713011461 ], [ 16.988040782170678, 48.795110321877708 ], [ 16.98803919269108, 48.795054704150488 ], [ 16.98803782723521, 48.795006424590824 ], [ 16.988036181960101, 48.794951164690282 ], [ 16.988034927286936, 48.794908317055103 ], [ 16.988033504398349, 48.794857773424802 ], [ 16.988032015864331, 48.794806773293494 ], [ 16.988030825207471, 48.794761760261302 ], [ 16.988029445816512, 48.794713570157306 ], [ 16.988027929389752, 48.794662748939011 ], [ 16.988026492564153, 48.794612294764498 ], [ 16.98802599119416, 48.794594450573562 ], [ 16.988019557695754, 48.794564630554675 ], [ 16.988009438902075, 48.794517201640829 ], [ 16.988000139901715, 48.794474168037112 ], [ 16.987988574436557, 48.794420221786012 ], [ 16.98797708859362, 48.794366642577614 ], [ 16.987967021576249, 48.794319759617046 ], [ 16.987957432160634, 48.794275078919661 ], [ 16.98794701889096, 48.794226906694497 ], [ 16.987936315154514, 48.794177087378507 ], [ 16.987926102969936, 48.794129380868924 ], [ 16.987915478871471, 48.794079928594748 ], [ 16.987904616004627, 48.794029375187236 ], [ 16.987894600817512, 48.793983038176961 ], [ 16.987883115174217, 48.793929458957699 ], [ 16.987872158825951, 48.793878627959302 ], [ 16.987850512883469, 48.793777888177701 ], [ 16.987841415197636, 48.793735320277015 ], [ 16.987830819166302, 48.793685689080213 ], [ 16.987819212212109, 48.793632011179739 ], [ 16.9878083774394, 48.793581278848109 ], [ 16.987798071951431, 48.793533294737941 ], [ 16.98778734060873, 48.793483654319459 ], [ 16.987778599150758, 48.793443190004119 ], [ 16.987768719592427, 48.793396862198236 ], [ 16.987753984804073, 48.793328144695778 ], [ 16.987732194097187, 48.793226581343241 ], [ 16.987721064916112, 48.793175105696513 ], [ 16.987710759594428, 48.793127121577321 ], [ 16.987698253578248, 48.793068681304931 ], [ 16.987689128248107, 48.793026292303772 ], [ 16.987687667668791, 48.793019864420877 ], [ 16.98767622182692, 48.792969542489757 ], [ 16.987664949144257, 48.792919865189127 ], [ 16.987653292470664, 48.792868263209122 ], [ 16.987643372907236, 48.792824825658656 ], [ 16.987631716277772, 48.792773223676186 ], [ 16.987619633809757, 48.792719965384315 ], [ 16.987607551367297, 48.792666707090994 ], [ 16.987595894811108, 48.792615105104353 ], [ 16.987573228341823, 48.79251565180973 ], [ 16.987561506214938, 48.792463593318026 ], [ 16.987555172531724, 48.792435768969604 ], [ 16.987549859591244, 48.792412805654109 ], [ 16.987544073220889, 48.792386736287412 ], [ 16.987532520174174, 48.792336226209088 ], [ 16.987525086200751, 48.792303173780873 ], [ 16.987513734225569, 48.792253129418953 ], [ 16.98750171764706, 48.792200327614104 ], [ 16.987490885112674, 48.79215221714572 ], [ 16.987479533205509, 48.792102172779941 ], [ 16.987470330253991, 48.792062038612208 ], [ 16.987459643008641, 48.792014751686075 ], [ 16.987447930952307, 48.79196350750923 ], [ 16.987437402928222, 48.791916954669631 ], [ 16.987422905285687, 48.791852863934288 ], [ 16.987405870660602, 48.791777842102036 ], [ 16.987399139204026, 48.791748182521474 ], [ 16.987371014675798, 48.791684610547776 ], [ 16.987337580010458, 48.791648070212922 ], [ 16.987324023013453, 48.791633224631916 ], [ 16.987206422142844, 48.791568714058329 ], [ 16.987128661483759, 48.791525991582922 ], [ 16.987046090927841, 48.791480771811429 ], [ 16.986973869201179, 48.791441138522352 ], [ 16.986896351817428, 48.791398613238968 ], [ 16.986791113469256, 48.791340820301208 ], [ 16.986725065872051, 48.791304590620484 ], [ 16.986774887199868, 48.791272905048928 ], [ 16.986827634027474, 48.791261940938263 ], [ 16.986902513516341, 48.791250313966103 ], [ 16.987225058234657, 48.791200039357051 ], [ 16.987253098898847, 48.791195710392607 ], [ 16.987411152383583, 48.791171031630206 ], [ 16.988913238582306, 48.79081302694496 ], [ 16.988929290778152, 48.790809237651651 ], [ 16.991122383778865, 48.790291932665852 ], [ 16.991124512212679, 48.790291444662813 ], [ 16.991208892974139, 48.790271511400995 ], [ 16.991166621140692, 48.790251276874216 ], [ 16.991046170891821, 48.790193628121571 ], [ 16.991044779226669, 48.790192900575512 ], [ 16.990804511131405, 48.7901481624247 ], [ 16.990663565515877, 48.790121935875774 ], [ 16.990595920703253, 48.790100336002894 ], [ 16.990517849312756, 48.790075404724305 ], [ 16.990423495986967, 48.790045206618622 ], [ 16.990417533100633, 48.790043083090126 ], [ 16.990236331211801, 48.789979309905974 ], [ 16.990087054485823, 48.789926659427799 ], [ 16.990028682184334, 48.789906142297809 ], [ 16.989893031162243, 48.789865267647215 ], [ 16.989795289861817, 48.78983574244505 ], [ 16.989715954889899, 48.789811899844715 ], [ 16.989531968473308, 48.789756343689334 ], [ 16.989480345551002, 48.789740805957429 ], [ 16.989372751773228, 48.789706903095762 ], [ 16.989207385507477, 48.789654783517257 ], [ 16.989122741442817, 48.789628138121167 ], [ 16.989104484698277, 48.789622375099533 ], [ 16.989036707540791, 48.789603386990535 ], [ 16.988925918479005, 48.789572430390706 ], [ 16.988819336382416, 48.789542573704267 ], [ 16.988651388300053, 48.789495611476639 ], [ 16.98854179029254, 48.789464916364444 ], [ 16.988424455727952, 48.789432067160106 ], [ 16.988270277524144, 48.789388934709613 ], [ 16.988248706068305, 48.789382493854504 ], [ 16.9881114611951, 48.789341327586101 ], [ 16.988018928152041, 48.789313511392031 ], [ 16.987908596576993, 48.789280505520104 ], [ 16.987754758177953, 48.789234321628662 ], [ 16.987652677215443, 48.789203685325461 ], [ 16.987559617092614, 48.78917574243529 ], [ 16.987510726866688, 48.789161113036293 ], [ 16.987472818397276, 48.789149762672949 ], [ 16.987362338209589, 48.789116836515205 ], [ 16.987214220584459, 48.789072578237906 ], [ 16.98711107115847, 48.789041778254123 ], [ 16.986921908141127, 48.788985232220135 ], [ 16.986869217703799, 48.788969530112325 ], [ 16.986843164980755, 48.788962874249876 ], [ 16.986745285181595, 48.788937766700556 ], [ 16.986657266306153, 48.788915229039887 ], [ 16.986627791314671, 48.788907707252882 ], [ 16.986442141603121, 48.788861977158014 ], [ 16.986335938169947, 48.788835850418096 ], [ 16.986240678700643, 48.788812367339155 ], [ 16.986207076699866, 48.788804112374628 ], [ 16.986146524615879, 48.78878706090692 ], [ 16.986033535300916, 48.788755318595555 ], [ 16.985967870810967, 48.788736834007281 ], [ 16.985803555309438, 48.78871398198649 ], [ 16.985686107831153, 48.788697666481617 ], [ 16.985672211991723, 48.788692019027167 ], [ 16.985595784930904, 48.788660957997635 ], [ 16.985520777412578, 48.788630445617244 ], [ 16.985466735099106, 48.788608503086323 ], [ 16.985425818176346, 48.788591884327019 ], [ 16.985387483357577, 48.788576255060129 ], [ 16.985323154723769, 48.788550086063786 ], [ 16.985244795031662, 48.788518260305054 ], [ 16.985160907017317, 48.788484159438831 ], [ 16.985031615240835, 48.788431506684944 ], [ 16.984865002530903, 48.788363745390221 ], [ 16.984843388621009, 48.788354950366106 ], [ 16.984791902515866, 48.788336797847812 ], [ 16.984717458551099, 48.788310572380276 ], [ 16.984526035558748, 48.788243109682995 ], [ 16.984482202289307, 48.78822764801447 ], [ 16.984370714279606, 48.788196819825586 ], [ 16.98404991206559, 48.78810797733631 ], [ 16.983922444479827, 48.788118189859844 ], [ 16.983498265994879, 48.788227166333471 ], [ 16.983485717304255, 48.788190962384945 ], [ 16.983467006655783, 48.788137251758435 ], [ 16.983426700598695, 48.788021135717877 ], [ 16.983412714468042, 48.787994145755945 ], [ 16.983532596352397, 48.787993090625491 ], [ 16.983456442002581, 48.787681423256899 ], [ 16.983445157941055, 48.78763536066873 ], [ 16.98338229555878, 48.787377938774128 ], [ 16.983365683003566, 48.787309905904323 ], [ 16.98338100316338, 48.787273973076694 ], [ 16.983370453377248, 48.787238990145255 ], [ 16.983357878509274, 48.787196817511251 ], [ 16.983349863263044, 48.787170143865886 ], [ 16.983336011388467, 48.787149310697558 ], [ 16.983287611563995, 48.787076309750098 ], [ 16.983231545597292, 48.786991937682785 ], [ 16.983178707937252, 48.786912305853065 ], [ 16.983175874801429, 48.786904157028204 ], [ 16.983173925103323, 48.786898238155807 ], [ 16.983141586956339, 48.786804724021543 ], [ 16.983124137328176, 48.786777136410961 ], [ 16.983094709004984, 48.786730741742439 ], [ 16.983060104346848, 48.786676309821971 ], [ 16.983022448927187, 48.786616878475307 ], [ 16.983007190559615, 48.786592785181114 ], [ 16.982942059025152, 48.786568277627154 ], [ 16.982847984907156, 48.786532847943015 ], [ 16.982695255360493, 48.786475250218899 ], [ 16.982676841536826, 48.786459982598714 ], [ 16.982624715149079, 48.786417013752043 ], [ 16.982613922834403, 48.786408141833007 ], [ 16.982602644848662, 48.786398875195424 ], [ 16.982557817657863, 48.786361737624489 ], [ 16.982513812546404, 48.786325469704572 ], [ 16.982499569082044, 48.786304519308608 ], [ 16.982421615431406, 48.786189453953227 ], [ 16.982386686638549, 48.786137983105135 ], [ 16.982379883218886, 48.786124591351232 ], [ 16.982320385908956, 48.786006986264184 ], [ 16.982311194715656, 48.785988730645485 ], [ 16.982271126705321, 48.785909697039294 ], [ 16.982262971128847, 48.78589006546008 ], [ 16.982170293264161, 48.785668581874077 ], [ 16.982146294285975, 48.785611075072957 ], [ 16.982097090758639, 48.785493267086082 ], [ 16.982071657342789, 48.785432679083797 ], [ 16.982051542317915, 48.785384477602662 ], [ 16.982005348032288, 48.785373645475772 ], [ 16.981947006491513, 48.785359996691064 ], [ 16.981915326450643, 48.785352594478937 ], [ 16.981912543399872, 48.785359908646441 ], [ 16.981846463152678, 48.785533508284111 ], [ 16.981829242706777, 48.785578985038747 ], [ 16.981809187527737, 48.785631229994863 ], [ 16.981633027913343, 48.785702762963716 ], [ 16.98159284058088, 48.785719190945017 ], [ 16.9814856305143, 48.785762694489648 ], [ 16.981466201826905, 48.785770592142448 ], [ 16.981369940344674, 48.785809688424827 ], [ 16.981059454123407, 48.785995021211292 ], [ 16.981024962265124, 48.78600388129189 ], [ 16.980749290841469, 48.785379637509592 ], [ 16.980633499211823, 48.785116074505737 ], [ 16.980500185261434, 48.784812261156318 ], [ 16.980498577754513, 48.784808535308542 ], [ 16.980426864926688, 48.784649141783582 ], [ 16.980350946865535, 48.784479878400717 ], [ 16.980274384629503, 48.784309486139811 ], [ 16.980271730600354, 48.784303699999548 ], [ 16.980243256834168, 48.784233682632326 ], [ 16.980204731021285, 48.784138660569134 ], [ 16.980029055100186, 48.783718859425633 ], [ 16.979943779859163, 48.783446526183326 ], [ 16.979647867706671, 48.78251387438678 ], [ 16.979617738175875, 48.782422046071098 ], [ 16.979605816028087, 48.782368706680415 ], [ 16.979366804638659, 48.781601851655267 ], [ 16.979285169724971, 48.781561299262812 ], [ 16.979184230407576, 48.781511203799546 ], [ 16.979081386519134, 48.781460164735371 ], [ 16.978992767911677, 48.781416152590211 ], [ 16.978858435087538, 48.781349496006094 ], [ 16.977992406022484, 48.780484109325549 ], [ 16.977814278980652, 48.780265111850831 ], [ 16.977746638977255, 48.780132301933513 ], [ 16.977411890349934, 48.77941550774473 ], [ 16.976759255540465, 48.778620620580092 ], [ 16.976704332412371, 48.778553589739772 ], [ 16.976626739024201, 48.778459156250669 ], [ 16.976562486652636, 48.778380911401065 ], [ 16.976523529057818, 48.778333412402908 ], [ 16.976489189425159, 48.778302772953097 ], [ 16.976444307450468, 48.778262554578475 ], [ 16.976384527232074, 48.778209115116219 ], [ 16.975854020790848, 48.777692326720867 ], [ 16.975846041681411, 48.777684730713183 ], [ 16.975810553579763, 48.777650938802644 ], [ 16.975702340489953, 48.777700063437329 ], [ 16.974982176318107, 48.777955528935408 ], [ 16.974512327930789, 48.778070031870655 ], [ 16.972391022957222, 48.778586920870325 ], [ 16.96990664366556, 48.779163977812615 ], [ 16.969387592245731, 48.779276278388039 ], [ 16.968473627518616, 48.779474178118825 ], [ 16.968441774521622, 48.779481044591421 ], [ 16.968117161412668, 48.779544863549631 ], [ 16.967681193872401, 48.779630552773618 ], [ 16.967357988317385, 48.779694104169685 ], [ 16.967311405327436, 48.77970330981281 ], [ 16.966873292830837, 48.77978957297605 ], [ 16.966575619472898, 48.779848175302426 ], [ 16.966464981494006, 48.779859335558037 ], [ 16.966433145945086, 48.779862586334353 ], [ 16.966408964730249, 48.779865003615569 ], [ 16.966142089153003, 48.779891985187639 ], [ 16.966058544631629, 48.779900474649253 ], [ 16.965941185091609, 48.779910000116324 ], [ 16.96577783844392, 48.779923165840195 ], [ 16.965612676140772, 48.779936568985548 ], [ 16.965451401617909, 48.779949604530394 ], [ 16.965363273285195, 48.779956785969908 ], [ 16.965278071320313, 48.779963624733703 ], [ 16.965116091871241, 48.779976792496548 ], [ 16.964948166150783, 48.779990367623633 ], [ 16.964778574106933, 48.780004099935915 ], [ 16.964776366450597, 48.780004220390254 ], [ 16.964600570983418, 48.780015630181879 ], [ 16.964431412399723, 48.78002658890702 ], [ 16.964255075353659, 48.780037961190118 ], [ 16.964090061228596, 48.780048660033039 ], [ 16.963911787079574, 48.780060170719032 ], [ 16.963748425058235, 48.780070801105261 ], [ 16.963575121491719, 48.780082017926283 ], [ 16.963409565655773, 48.78009267880671 ], [ 16.963225209626668, 48.780104586691884 ], [ 16.963055901100617, 48.780115623594334 ], [ 16.962870448067026, 48.780127546392542 ], [ 16.962778533652166, 48.780133563158536 ], [ 16.962669770012145, 48.780140598642483 ], [ 16.962491765927222, 48.780152125612844 ], [ 16.962305607863374, 48.780164180169741 ], [ 16.962269267703078, 48.780166489210167 ], [ 16.962116107793864, 48.780175734878988 ], [ 16.961939069515292, 48.780186332484732 ], [ 16.961757601825521, 48.780197260063048 ], [ 16.961565772471829, 48.780208835557048 ], [ 16.961358353957333, 48.780221244202117 ], [ 16.961159481335102, 48.780233241890066 ], [ 16.96096323635636, 48.780245057144668 ], [ 16.96091959626958, 48.780247680655883 ], [ 16.960771177913177, 48.780256344450549 ], [ 16.960585499696851, 48.780267072908558 ], [ 16.960352727385654, 48.780280640393485 ], [ 16.960131142701695, 48.780293525378141 ], [ 16.959901417955614, 48.780306848172941 ], [ 16.959800214692709, 48.780312770271259 ], [ 16.959671543735933, 48.780320250710311 ], [ 16.959650563755467, 48.780321438817012 ], [ 16.959424959892846, 48.780331154669391 ], [ 16.959192896242403, 48.780341061462416 ], [ 16.958936305247949, 48.780352094139531 ], [ 16.958718841081112, 48.780361370432026 ], [ 16.958467477389728, 48.780372216892424 ], [ 16.958350138511381, 48.780377215665872 ], [ 16.958227077236025, 48.780378568414513 ], [ 16.957649576904025, 48.780385021412037 ], [ 16.957382614224517, 48.780388018433761 ], [ 16.957075366966453, 48.780391425220941 ], [ 16.957026443013163, 48.780391968255678 ], [ 16.956789127742507, 48.780388220903276 ], [ 16.956512088056336, 48.780383927027934 ], [ 16.956229876914829, 48.780379459725005 ], [ 16.956112925280038, 48.780377611513643 ], [ 16.955961640134309, 48.780372240368273 ], [ 16.955735382251117, 48.780364274276899 ], [ 16.955654962591151, 48.780362391971067 ], [ 16.955380737668339, 48.780355846724689 ], [ 16.955089887476721, 48.780348887254867 ], [ 16.954826561122506, 48.780342633871705 ], [ 16.954574403959437, 48.780336691635021 ], [ 16.95445433003264, 48.780333814506662 ], [ 16.954320081182114, 48.780330600738701 ], [ 16.953777480388506, 48.78031772235984 ], [ 16.953334795126793, 48.780307154748549 ], [ 16.953114129340019, 48.780301916591945 ], [ 16.953004818626844, 48.780299322064046 ], [ 16.952910915041929, 48.780297057993572 ], [ 16.952874543010076, 48.780282093458588 ], [ 16.952849911147112, 48.780246323776439 ], [ 16.952837236032167, 48.780225928068411 ], [ 16.952798837443449, 48.780163630472281 ], [ 16.95271413030887, 48.780026650353932 ], [ 16.952540676030313, 48.779746175135514 ], [ 16.952327953600321, 48.779401986038359 ], [ 16.952281016267001, 48.779326084916924 ], [ 16.952232025766577, 48.77924669811388 ], [ 16.952135963175682, 48.779091400849126 ], [ 16.952032047319388, 48.778923360758697 ], [ 16.951929798140739, 48.778757785226681 ], [ 16.951830596869829, 48.778597209845934 ], [ 16.951703859251666, 48.778392347779608 ], [ 16.951576614056119, 48.778186365844299 ], [ 16.951443569546736, 48.777971126657526 ], [ 16.95138636415227, 48.777878700566703 ], [ 16.951352245083797, 48.77789652788875 ], [ 16.951247661358266, 48.777951123223268 ], [ 16.951145901221444, 48.778004284266174 ], [ 16.951047562129794, 48.778055690257467 ], [ 16.950948938128235, 48.778107167095179 ], [ 16.950854482000306, 48.778156487934524 ], [ 16.950755409520077, 48.778208205179745 ], [ 16.950653335604333, 48.778261615618419 ], [ 16.950605815556621, 48.778286391581943 ], [ 16.950562015479829, 48.778309252196919 ], [ 16.950371593882849, 48.778408784518639 ], [ 16.950178809757173, 48.778509420669842 ], [ 16.950066171897237, 48.778568255768299 ], [ 16.950034591058387, 48.77858471945602 ], [ 16.949987803199566, 48.778609183661501 ], [ 16.949927003181852, 48.778641006842626 ], [ 16.949782050921506, 48.778716616809376 ], [ 16.949682663484012, 48.778768582955315 ], [ 16.949584335405007, 48.778819898232832 ], [ 16.949509984748058, 48.778858750120811 ], [ 16.949492849866935, 48.778867703597335 ], [ 16.949381881440061, 48.778925477027528 ], [ 16.94927805426051, 48.778979580155337 ], [ 16.949192258044796, 48.77902424862328 ], [ 16.9490806914609, 48.779082342518201 ], [ 16.94897953820713, 48.779135091418873 ], [ 16.948872587477055, 48.779190788698024 ], [ 16.948744781204827, 48.779257354511081 ], [ 16.948698304838327, 48.779281568357796 ], [ 16.948645036396584, 48.779312459836355 ], [ 16.948546009746671, 48.779369964933061 ], [ 16.948435234051313, 48.779434350807541 ], [ 16.94832975604789, 48.77949548272359 ], [ 16.948223353540506, 48.779557274574991 ], [ 16.948091660521243, 48.779633790241505 ], [ 16.948003770044437, 48.779684824242629 ], [ 16.947975748567568, 48.779703881766729 ], [ 16.947930889893367, 48.779734354047761 ], [ 16.947893056373019, 48.779760153704245 ], [ 16.947864722054103, 48.779779461028369 ], [ 16.947830123362408, 48.779802950558739 ], [ 16.947795986766774, 48.77982611006383 ], [ 16.947758778624983, 48.779851410021344 ], [ 16.947712057149936, 48.779883291726321 ], [ 16.947672253549726, 48.779910312650685 ], [ 16.947594139929468, 48.779963552584071 ], [ 16.947578688985971, 48.779973977254009 ], [ 16.947457393323496, 48.780047858778524 ], [ 16.947436677103688, 48.780060454552526 ], [ 16.947417454588589, 48.780072248451567 ], [ 16.947336858180986, 48.780121249786959 ], [ 16.947300873093639, 48.780143107297491 ], [ 16.94726457521174, 48.780165214622315 ], [ 16.947229635666314, 48.780186510801919 ], [ 16.94718697997018, 48.780212522661436 ], [ 16.947149174244156, 48.780235521269468 ], [ 16.947113623091056, 48.780257227612367 ], [ 16.947083981557434, 48.780275269952845 ], [ 16.947040429473258, 48.780301762877613 ], [ 16.946996429224182, 48.780328496345433 ], [ 16.946956788787087, 48.780352725483809 ], [ 16.946863625248579, 48.780409455385922 ], [ 16.946800714773044, 48.780447732755952 ], [ 16.946761699682003, 48.78047146217763 ], [ 16.946727221850789, 48.780492428192588 ], [ 16.946690013198275, 48.780515105903348 ], [ 16.946656296197819, 48.780535581514243 ], [ 16.946621804257997, 48.780556636948994 ], [ 16.946585207027866, 48.780578904429532 ], [ 16.946531655492493, 48.780611583954602 ], [ 16.946516237020287, 48.780620925793841 ], [ 16.946459785266143, 48.780661634202623 ], [ 16.946397474899253, 48.780706552515539 ], [ 16.946355989057892, 48.780736441492671 ], [ 16.946323297979447, 48.780759970836939 ], [ 16.946279501312393, 48.780791509829946 ], [ 16.946192967464516, 48.780853937015095 ], [ 16.946143134650857, 48.780889944965757 ], [ 16.946103198352525, 48.780918674189465 ], [ 16.946060311687209, 48.780949642534026 ], [ 16.946020986821054, 48.78097796153579 ], [ 16.945973940690916, 48.781011899915455 ], [ 16.945906247022492, 48.781060608410229 ], [ 16.94586027441996, 48.781093806543566 ], [ 16.945774052303516, 48.781155983588071 ], [ 16.945746607777043, 48.781175713058083 ], [ 16.945612252789623, 48.781264792203324 ], [ 16.945328729096513, 48.781452785290149 ], [ 16.943730065741025, 48.782512346138986 ], [ 16.943694786427425, 48.782535788066575 ], [ 16.94365563596573, 48.782601368052852 ], [ 16.943636316934956, 48.782618127483872 ], [ 16.943559544944581, 48.782684566823512 ], [ 16.943510322815527, 48.782727125348664 ], [ 16.943923999170948, 48.78306683126663 ], [ 16.943941966448893, 48.783079634295262 ], [ 16.944475836191845, 48.783462557322387 ], [ 16.945028632567247, 48.783805093329669 ], [ 16.94486109820652, 48.783863149601167 ], [ 16.9447572322327, 48.783899074223328 ], [ 16.94470862290078, 48.783915907889259 ], [ 16.943336400710884, 48.783884240771286 ], [ 16.943233423711394, 48.783873482016411 ], [ 16.943224824205679, 48.783948387050039 ], [ 16.943199351211437, 48.784073309713058 ], [ 16.943190573558287, 48.784116196737436 ], [ 16.943151873149962, 48.784305400562204 ], [ 16.943150975912967, 48.784360852026317 ], [ 16.942750151250937, 48.784348320586609 ], [ 16.942670131797872, 48.784346456975712 ], [ 16.942247236717485, 48.784338560286407 ], [ 16.942159660084883, 48.784336902032358 ], [ 16.94206198240067, 48.784335094360692 ], [ 16.941672131097025, 48.784279641651338 ], [ 16.941393979166747, 48.784259595117604 ], [ 16.941152838508227, 48.78425392710129 ], [ 16.940897651466546, 48.784310765736642 ], [ 16.940588082692909, 48.784458720946567 ], [ 16.940295641750797, 48.784453876735576 ], [ 16.940010431248364, 48.784449165469688 ], [ 16.939399403331521, 48.784404681471322 ], [ 16.939269339508037, 48.784392153763918 ], [ 16.939259215361798, 48.784391279285494 ], [ 16.938695278832796, 48.784343146549197 ], [ 16.938629525664794, 48.784337556182436 ], [ 16.939002838216211, 48.784795758457378 ], [ 16.939034790158686, 48.78483366058677 ], [ 16.939512942812609, 48.785396327491618 ], [ 16.939681462279509, 48.785604157979769 ], [ 16.939683762613178, 48.785606937531547 ], [ 16.93989224800994, 48.785627187767851 ], [ 16.940277142414029, 48.785664585585693 ], [ 16.94021073854309, 48.78571545933584 ], [ 16.940079821435685, 48.785815618433652 ], [ 16.939977829096364, 48.78589361887483 ], [ 16.939734204260407, 48.786032799551009 ], [ 16.939431376651218, 48.786205716137815 ], [ 16.939248607996156, 48.786310187949979 ], [ 16.939125067262303, 48.786371160524851 ], [ 16.938899750823907, 48.786482571721827 ], [ 16.93868392511904, 48.786589298485495 ], [ 16.93846440546417, 48.786697760873288 ], [ 16.938279145032435, 48.786789312500304 ], [ 16.938037185381926, 48.786895151643215 ], [ 16.937055750318851, 48.78732399131605 ], [ 16.936105262852969, 48.787739484220772 ], [ 16.935519882726563, 48.788013365523469 ], [ 16.935512645681516, 48.788016757225869 ], [ 16.935439406775021, 48.78805097635226 ], [ 16.935289221373903, 48.788121239844003 ], [ 16.93525659385832, 48.788136453070585 ], [ 16.93519929484642, 48.788163265858763 ], [ 16.935123678907754, 48.788198678069868 ], [ 16.935040839796514, 48.788237392453105 ], [ 16.934959317213885, 48.788275564139681 ], [ 16.934837481355856, 48.788332581048408 ], [ 16.934731898480837, 48.788381941927341 ], [ 16.934650674261242, 48.788419953052497 ], [ 16.934507126160391, 48.788487144549052 ], [ 16.934426349852224, 48.788524915003926 ], [ 16.934341147067183, 48.788564732700472 ], [ 16.93423246756786, 48.788615508336441 ], [ 16.934199241736557, 48.788631041940086 ], [ 16.934185649752802, 48.788637433608436 ], [ 16.934116074268946, 48.788670094892069 ], [ 16.934052582723961, 48.788699737530308 ], [ 16.934037991985299, 48.788705518236142 ], [ 16.934019586582021, 48.788712936098044 ], [ 16.93386623610046, 48.788774572598356 ], [ 16.933819788242744, 48.788793268236127 ], [ 16.933706600656141, 48.788838761665431 ], [ 16.933656650880501, 48.788858844595865 ], [ 16.933554715512809, 48.788899774956256 ], [ 16.933497612580041, 48.788922712694621 ], [ 16.93341085147588, 48.788957631064271 ], [ 16.93331169851411, 48.788997395801545 ], [ 16.933256780485515, 48.789019488690215 ], [ 16.933237356998088, 48.789027288705903 ], [ 16.933109129135808, 48.789078802650529 ], [ 16.933074082737292, 48.789092854952258 ], [ 16.932995804884499, 48.789124286093966 ], [ 16.932967192505142, 48.789135705461135 ], [ 16.932912708391285, 48.789157647129848 ], [ 16.93281689301471, 48.789196193720962 ], [ 16.932683995150501, 48.789249556963988 ], [ 16.932657703150586, 48.78926014081847 ], [ 16.93261140381453, 48.789278755797177 ], [ 16.932533260755992, 48.789310195904157 ], [ 16.932506235625599, 48.789321091111923 ], [ 16.932347208439989, 48.789384868159196 ], [ 16.932253876202388, 48.789422409232586 ], [ 16.932197789948127, 48.789444964050283 ], [ 16.932116158534892, 48.78947770173481 ], [ 16.932075410475925, 48.789494075196664 ], [ 16.932048235722537, 48.789505050463013 ], [ 16.932034662390326, 48.789510448643902 ], [ 16.93183764056365, 48.789589611942645 ], [ 16.931871378197343, 48.789617874036843 ], [ 16.931878643728929, 48.789623887462945 ], [ 16.931906221856558, 48.789646935267392 ], [ 16.932782962595329, 48.790380268354056 ], [ 16.933432610058105, 48.790923436746674 ], [ 16.933437799265544, 48.79092786109198 ], [ 16.933463087554351, 48.790948943177391 ], [ 16.933466834821356, 48.790952093296283 ], [ 16.933694710129416, 48.791142664699272 ], [ 16.935109617348814, 48.792307882078724 ], [ 16.935119553123478, 48.792316067348509 ], [ 16.935144884953949, 48.792336880712007 ], [ 16.935258182994527, 48.792430176667388 ], [ 16.935270802338874, 48.792440444519571 ], [ 16.935292629480024, 48.792458305249184 ], [ 16.935335495088299, 48.792482490212194 ], [ 16.937173200571792, 48.793520330008874 ], [ 16.937219456678129, 48.793546464302061 ], [ 16.93715893837404, 48.793566728938657 ], [ 16.937070150994444, 48.793599703343034 ], [ 16.936987008680973, 48.793630713772579 ], [ 16.936925107185651, 48.793653686309938 ], [ 16.936738220965886, 48.793723155654853 ], [ 16.936662068317833, 48.79375148039658 ], [ 16.936573130854121, 48.793784534587807 ], [ 16.93623059887242, 48.793911870133456 ], [ 16.936044864047805, 48.793980965316592 ], [ 16.935867421626, 48.794046921603865 ], [ 16.935681685800034, 48.794116016196789 ], [ 16.935494796132204, 48.794185483508542 ], [ 16.935313131054013, 48.794253048304554 ], [ 16.93513902536758, 48.794317785675261 ], [ 16.934910276918909, 48.794402827442795 ], [ 16.934769548019911, 48.794454572174985 ], [ 16.934591210700031, 48.794520103722412 ], [ 16.934414759392816, 48.79458495058195 ], [ 16.934221016352765, 48.794656206618555 ], [ 16.934027001982038, 48.79472744376563 ], [ 16.933841985269897, 48.794795409640201 ], [ 16.933671177474864, 48.79485829160101 ], [ 16.933294464113715, 48.794996657352513 ], [ 16.932956361654764, 48.795120942597613 ], [ 16.932935815576389, 48.795128032869847 ], [ 16.932577859961299, 48.795251498542136 ], [ 16.932182447691634, 48.795387765341388 ], [ 16.931811609506397, 48.795515679990103 ], [ 16.93170034133227, 48.795554071111781 ], [ 16.931189349560842, 48.795730871413468 ], [ 16.931010481982863, 48.795792745114376 ], [ 16.930626553081204, 48.795925545126977 ], [ 16.930475044060778, 48.795977902118452 ], [ 16.930346762669831, 48.796020911810565 ], [ 16.930233503523223, 48.796058893882098 ], [ 16.929845752819546, 48.796188988297175 ], [ 16.929460022108128, 48.796318406355383 ], [ 16.928795329890487, 48.796541344706824 ], [ 16.928709372769983, 48.796570167632858 ], [ 16.928573583978604, 48.796615644249336 ], [ 16.928349502413177, 48.79669086815769 ], [ 16.9282768445035, 48.796715178225824 ], [ 16.928239144931073, 48.796727781708299 ], [ 16.928079931261323, 48.796781234806474 ], [ 16.928042082137232, 48.796793918385688 ], [ 16.928027592454995, 48.796821675982144 ], [ 16.928022866878468, 48.796830845256288 ], [ 16.928004843531024, 48.79686541271824 ], [ 16.927640883685868, 48.796994691290543 ], [ 16.927606074405894, 48.797006317485952 ], [ 16.92759770132492, 48.79700908839532 ], [ 16.927266213807524, 48.797127664363074 ], [ 16.9272417151812, 48.79713638125444 ], [ 16.926937905469099, 48.797244287657257 ], [ 16.926912972422077, 48.797253155509686 ], [ 16.926187089808423, 48.7975108506608 ], [ 16.92585095881347, 48.797630189349171 ], [ 16.925531792630157, 48.797743458131606 ], [ 16.925413518223408, 48.797785431680552 ], [ 16.925175727357665, 48.797868569909497 ], [ 16.923954350390186, 48.79829541054869 ], [ 16.923906126284983, 48.798312263227814 ], [ 16.923932490578078, 48.79834390931407 ], [ 16.924303287592871, 48.798789240035454 ], [ 16.924462269941515, 48.798980164891717 ], [ 16.925180891450594, 48.799851703299929 ], [ 16.925204093746167, 48.799879967521782 ], [ 16.925841238409483, 48.800652692564832 ], [ 16.925964349935043, 48.800803722033379 ], [ 16.926186728101058, 48.801076387426924 ], [ 16.926425747319474, 48.80136945202937 ], [ 16.926447065763739, 48.801395778383728 ], [ 16.92707599415154, 48.802167026087965 ], [ 16.927698534159774, 48.802924178342217 ], [ 16.927721753358984, 48.802952352602766 ], [ 16.928233314155776, 48.803574495670524 ], [ 16.928321550278334, 48.803681901044023 ], [ 16.928931997468801, 48.804428269121914 ], [ 16.928952082021681, 48.804452882766562 ], [ 16.929614212833819, 48.805261558954506 ], [ 16.930196893813804, 48.805982777441002 ], [ 16.930219924188297, 48.806011299705894 ], [ 16.930246324635007, 48.806042765433823 ], [ 16.930253698266558, 48.806051589034226 ], [ 16.930509215680154, 48.806355808887034 ], [ 16.930763336037252, 48.806658485560661 ], [ 16.931009856887854, 48.806952051200021 ], [ 16.931401322370295, 48.807418205957944 ], [ 16.931667793546204, 48.807735559771061 ], [ 16.931926665188684, 48.808043802554515 ], [ 16.932169498466781, 48.808333043391634 ], [ 16.932179281050473, 48.808344834748695 ], [ 16.932425060873538, 48.808640605725373 ], [ 16.93330917805417, 48.809704695017921 ], [ 16.933434193304262, 48.809855210931531 ], [ 16.934063561167225, 48.81061278322349 ], [ 16.934013036377074, 48.810627674797409 ], [ 16.93319391603189, 48.810868818821177 ], [ 16.932869365510097, 48.810985450424333 ], [ 16.932874564709586, 48.811022062361253 ], [ 16.932872790284986, 48.811050782494164 ], [ 16.932869477745921, 48.811102362111406 ], [ 16.932866880594467, 48.811142417895347 ], [ 16.932862170460268, 48.81121596249799 ], [ 16.93286065534426, 48.811239546862595 ], [ 16.932859634614161, 48.811254756701992 ], [ 16.932858891108829, 48.811266459434414 ], [ 16.932851568465932, 48.811382771159423 ], [ 16.932843733494021, 48.81150582874718 ], [ 16.932827141058471, 48.811766527607304 ], [ 16.932808788001736, 48.812055857139676 ], [ 16.932791992074545, 48.81232133395153 ], [ 16.932782867736343, 48.812463922800276 ], [ 16.93277347890141, 48.812612551193716 ], [ 16.932766316815123, 48.812724353282881 ], [ 16.932756936829708, 48.812873796002286 ], [ 16.932747660272682, 48.813021708790529 ], [ 16.9327395079534, 48.813152881811725 ], [ 16.932731181831233, 48.813286032008456 ], [ 16.932723034529172, 48.813416301245766 ], [ 16.932705196418723, 48.813700602972261 ], [ 16.932687165176834, 48.813987875096814 ], [ 16.932669754667664, 48.814265967641731 ], [ 16.932664407671293, 48.814351403128605 ], [ 16.932637727573802, 48.814828763542415 ], [ 16.932630420542417, 48.814958909551507 ], [ 16.932623004870777, 48.815091489267004 ], [ 16.932607362074254, 48.815373138668214 ], [ 16.932591960577199, 48.815648023635617 ], [ 16.932576394079163, 48.815925700101999 ], [ 16.932573401636073, 48.815980466126476 ], [ 16.932571450539811, 48.81601640720006 ], [ 16.932674099024194, 48.816017474509728 ], [ 16.934094713800068, 48.816032635286128 ], [ 16.935254962904708, 48.816048476322138 ], [ 16.935299512293447, 48.816048996721975 ], [ 16.93558202095295, 48.81605288963258 ], [ 16.937903203212208, 48.816098500045335 ], [ 16.93792448766709, 48.816098963152321 ], [ 16.937957654454703, 48.816099607113593 ], [ 16.937962016895376, 48.816099725044147 ], [ 16.938163605206405, 48.816103675391567 ], [ 16.940568091052192, 48.816147974545046 ], [ 16.940600445214177, 48.816148562104857 ], [ 16.943108434492672, 48.816194559204611 ], [ 16.943116346718142, 48.816194739054467 ], [ 16.943157290416146, 48.816195552091969 ], [ 16.943162885961392, 48.81619566380229 ], [ 16.943305133391302, 48.816198256251838 ], [ 16.94576322771475, 48.816233276196975 ], [ 16.945801070166247, 48.816233785703794 ], [ 16.945830295061448, 48.816234248105346 ], [ 16.948359783122363, 48.816257460813077 ], [ 16.948390269195993, 48.816257737580699 ], [ 16.948414375055172, 48.816257668401036 ], [ 16.948435038535184, 48.816257725432905 ], [ 16.949465947599094, 48.816258428354303 ], [ 16.949521529771989, 48.816258431896621 ], [ 16.950963111740187, 48.816259356452697 ], [ 16.951076667673902, 48.8162580789947 ], [ 16.951122754234586, 48.816257522978098 ], [ 16.952373564636087, 48.816243126865423 ], [ 16.952654036518386, 48.816225049392138 ], [ 16.952999773133101, 48.816202843166401 ], [ 16.953639257783191, 48.81619140030238 ], [ 16.953662322046934, 48.816190987603051 ], [ 16.953668636928185, 48.816190876731028 ], [ 16.953682102545187, 48.816194057298084 ], [ 16.953716450862355, 48.816202010269578 ], [ 16.954695256356906, 48.816429470709096 ], [ 16.95565320170947, 48.816652061300786 ], [ 16.956059663380685, 48.816746465086354 ], [ 16.956099953717263, 48.816755817781583 ], [ 16.95623362750209, 48.816786920325349 ], [ 16.95623970422416, 48.816788330007626 ], [ 16.956291092474746, 48.816800249058801 ] ] ] ] } }
]
}
