{
"type": "FeatureCollection",
"name": "parcela",
"crs": { "type": "name", "properties": { "name": "urn:ogc:def:crs:OGC:1.3:CRS84" } },
"features": [
{ "type": "Feature", "properties": { "ID": "5098", "ID_2": "3972391704", "TYPPPD_KOD": "9100301", "KATUZE_KOD": 648701, "OBEC_KOD": 584487, "Nazev": "22244/70" }, "geometry": { "type": "MultiPolygon", "coordinates": [ [ [ [ 16.961486708840653, 48.800984179913684 ], [ 16.960496154925341, 48.801627505964603 ], [ 16.959038809754286, 48.802551845132889 ], [ 16.959136993140117, 48.802607464318356 ], [ 16.960148252976733, 48.803170723634317 ], [ 16.960285691722301, 48.80277010332469 ], [ 16.960372016177772, 48.802563988910599 ], [ 16.960541023409274, 48.802310541917187 ], [ 16.96085369984754, 48.801902542842377 ], [ 16.961275571415968, 48.801410687381733 ], [ 16.961570742854015, 48.801030513011838 ], [ 16.961486708840653, 48.800984179913684 ] ] ] ] } }
]
}
